{"fetched_at":"2026-03-29T16:36:15Z","count":15609,"tles":[{"name":"STARLINK-35456","line1":"1 65867U 25223P   26087.73848873  .00036893  00000+0  12518-2 0  9994","line2":"2 65867  53.1585 205.5819 0001313  70.7120 289.4023 15.30195502 27127","category":"Starlink"}]}