{
  "norad_id": 65867,
  "name": "STARLINK-35456",
  "history": [
    {
      "epoch": "2026-03-28T17:43:25.426272",
      "apogee_km": 476.12855216052503,
      "perigee_km": 474.3284471783809,
      "latitude_deg": -45.66958538221628,
      "longitude_deg": 117.59491807990707,
      "semi_major_axis_km": 6853.365499669452,
      "eccentricity": 0.00013133,
      "inclination_deg": 53.1585,
      "raan_deg": 205.5819,
      "arg_perigee_deg": 70.712,
      "mean_anomaly_deg": 289.4023,
      "mean_motion_rev_day": 15.30195502
    }
  ]
}